[{"OBJECT_NAME":"STARLINK-31626","OBJECT_ID":"2024-062U","EPOCH":"2026-03-04T23:45:03.108384","MEAN_MOTION":15.30194354,"ECCENTRICITY":0.0001165,"INCLINATION":53.1593,"RA_OF_ASC_NODE":277.3617,"ARG_OF_PERICENTER":99.7092,"MEAN_ANOMALY":260.4041,"EPHEMERIS_TYPE":0,"CLASSIFICATION_TYPE":"U","NORAD_CAT_ID":59392,"ELEMENT_SET_NO":999,"REV_AT_EPOCH":10895,"BSTAR":-9.1511e-6,"MEAN_MOTION_DOT":-6.3e-6,"MEAN_MOTION_DDOT":0},{"OBJECT_NAME":"STARLINK-31443","OBJECT_ID":"2024-062V","EPOCH":"2026-03-04T20:08:54.698208","MEAN_MOTION":15.30199535,"ECCENTRICITY":0.000191,"INCLINATION":53.1577,"RA_OF_ASC_NODE":265.5943,"ARG_OF_PERICENTER":95.8381,"MEAN_ANOMALY":264.2837,"EPHEMERIS_TYPE":0,"CLASSIFICATION_TYPE":"U","NORAD_CAT_ID":59393,"ELEMENT_SET_NO":999,"REV_AT_EPOCH":10910,"BSTAR":0.00010493,"MEAN_MOTION_DOT":2.749e-5,"MEAN_MOTION_DDOT":0},{"OBJECT_NAME":"STARLINK-31607","OBJECT_ID":"2024-062W","EPOCH":"2026-03-04T23:54:09.928800","MEAN_MOTION":15.3019485,"ECCENTRICITY":0.0001182,"INCLINATION":53.1597,"RA_OF_ASC_NODE":277.4007,"ARG_OF_PERICENTER":90.0884,"MEAN_ANOMALY":270.0252,"EPHEMERIS_TYPE":0,"CLASSIFICATION_TYPE":"U","NORAD_CAT_ID":59394,"ELEMENT_SET_NO":999,"REV_AT_EPOCH":10894,"BSTAR":4.6602e-5,"MEAN_MOTION_DOT":1.021e-5,"MEAN_MOTION_DDOT":0},{"OBJECT_NAME":"STARLINK-31608","OBJECT_ID":"2024-062X","EPOCH":"2026-03-04T21:28:36.455232","MEAN_MOTION":15.30195947,"ECCENTRICITY":0.000111,"INCLINATION":53.1597,"RA_OF_ASC_NODE":278.1927,"ARG_OF_PERICENTER":93.2788,"MEAN_ANOMALY":266.834,"EPHEMERIS_TYPE":0,"CLASSIFICATION_TYPE":"U","NORAD_CAT_ID":59397,"ELEMENT_SET_NO":999,"REV_AT_EPOCH":10888,"BSTAR":1.0441e-5,"MEAN_MOTION_DOT":-5.0e-7,"MEAN_MOTION_DDOT":0},{"OBJECT_NAME":"STARLINK-31534","OBJECT_ID":"2024-064A","EPOCH":"2026-03-05T01:41:18.250368","MEAN_MOTION":15.27576245,"ECCENTRICITY":5.69e-5,"INCLINATION":43,"RA_OF_ASC_NODE":81.8923,"ARG_OF_PERICENTER":302.7211,"MEAN_ANOMALY":57.3586,"EPHEMERIS_TYPE":0,"CLASSIFICATION_TYPE":"U","NORAD_CAT_ID":59398,"ELEMENT_SET_NO":999,"REV_AT_EPOCH":10846,"BSTAR":1.6293e-5,"MEAN_MOTION_DOT":1.87e-6,"MEAN_MOTION_DDOT":0},{"OBJECT_NAME":"STARLINK-31544","OBJECT_ID":"2024-064B","EPOCH":"2026-03-05T01:21:09.547200","MEAN_MOTION":15.27577937,"ECCENTRICITY":0.0001567,"INCLINATION":43,"RA_OF_ASC_NODE":82.6404,"ARG_OF_PERICENTER":269.5194,"MEAN_ANOMALY":90.5478,"EPHEMERIS_TYPE":0,"CLASSIFICATION_TYPE":"U","NORAD_CAT_ID":59399,"ELEMENT_SET_NO":999,"REV_AT_EPOCH":10851,"BSTAR":2.5367e-5,"MEAN_MOTION_DOT":4.36e-6,"MEAN_MOTION_DDOT":0},{"OBJECT_NAME":"STARLINK-31545","OBJECT_ID":"2024-064C","EPOCH":"2026-03-05T01:57:57.475872","MEAN_MOTION":15.27577664,"ECCENTRICITY":0.0001505,"INCLINATION":43.0009,"RA_OF_ASC_NODE":81.976,"ARG_OF_PERICENTER":290.8772,"MEAN_ANOMALY":69.1918,"EPHEMERIS_TYPE":0,"CLASSIFICATION_TYPE":"U","NORAD_CAT_ID":59400,"ELEMENT_SET_NO":999,"REV_AT_EPOCH":10852,"BSTAR":3.0002e-5,"MEAN_MOTION_DOT":5.63e-6,"MEAN_MOTION_DDOT":0},{"OBJECT_NAME":"STARLINK-31507","OBJECT_ID":"2024-064D","EPOCH":"2026-03-05T02:07:12.338400","MEAN_MOTION":15.27584567,"ECCENTRICITY":0.0001307,"INCLINATION":42.9997,"RA_OF_ASC_NODE":82.0149,"ARG_OF_PERICENTER":189.1381,"MEAN_ANOMALY":170.9447,"EPHEMERIS_TYPE":0,"CLASSIFICATION_TYPE":"U","NORAD_CAT_ID":59401,"ELEMENT_SET_NO":999,"REV_AT_EPOCH":10846,"BSTAR":-1.7358e-5,"MEAN_MOTION_DOT":-7.4e-6,"MEAN_MOTION_DDOT":0},{"OBJECT_NAME":"STARLINK-31543","OBJECT_ID":"2024-064E","EPOCH":"2026-03-05T02:44:12.871104","MEAN_MOTION":15.27579584,"ECCENTRICITY":0.0001421,"INCLINATION":43.0029,"RA_OF_ASC_NODE":82.2146,"ARG_OF_PERICENTER":278.111,"MEAN_ANOMALY":81.9581,"EPHEMERIS_TYPE":0,"CLASSIFICATION_TYPE":"U","NORAD_CAT_ID":59402,"ELEMENT_SET_NO":999,"REV_AT_EPOCH":10852,"BSTAR":3.6014e-5,"MEAN_MOTION_DOT":7.29e-6,"MEAN_MOTION_DDOT":0},{"OBJECT_NAME":"STARLINK-31366","OBJECT_ID":"2024-064F","EPOCH":"2026-03-05T02:23:52.158336","MEAN_MOTION":15.27566519,"ECCENTRICITY":0.0001111,"INCLINATION":43.0031,"RA_OF_ASC_NODE":82.1058,"ARG_OF_PERICENTER":271.2469,"MEAN_ANOMALY":88.8256,"EPHEMERIS_TYPE":0,"CLASSIFICATION_TYPE":"U","NORAD_CAT_ID":59403,"ELEMENT_SET_NO":999,"REV_AT_EPOCH":10852,"BSTAR":1.8199e-5,"MEAN_MOTION_DOT":2.39e-6,"MEAN_MOTION_DDOT":0},{"OBJECT_NAME":"STARLINK-31374","OBJECT_ID":"2024-064G","EPOCH":"2026-03-05T05:02:29.443200","MEAN_MOTION":15.2758107,"ECCENTRICITY":4.32e-5,"INCLINATION":42.9992,"RA_OF_ASC_NODE":30.4072,"ARG_OF_PERICENTER":155.3729,"MEAN_ANOMALY":204.7144,"EPHEMERIS_TYPE":0,"CLASSIFICATION_TYPE":"U","NORAD_CAT_ID":59404,"ELEMENT_SET_NO":999,"REV_AT_EPOCH":10887,"BSTAR":1.5095e-5,"MEAN_MOTION_DOT":1.54e-6,"MEAN_MOTION_DDOT":0},{"OBJECT_NAME":"STARLINK-31400","OBJECT_ID":"2024-064H","EPOCH":"2026-03-05T01:46:51.150432","MEAN_MOTION":15.27577662,"ECCENTRICITY":9.35e-5,"INCLINATION":43.0013,"RA_OF_ASC_NODE":81.9181,"ARG_OF_PERICENTER":273.3111,"MEAN_ANOMALY":86.7633,"EPHEMERIS_TYPE":0,"CLASSIFICATION_TYPE":"U","NORAD_CAT_ID":59405,"ELEMENT_SET_NO":999,"REV_AT_EPOCH":10852,"BSTAR":2.5278e-5,"MEAN_MOTION_DOT":4.34e-6,"MEAN_MOTION_DDOT":0},{"OBJECT_NAME":"STARLINK-31391","OBJECT_ID":"2024-064J","EPOCH":"2026-03-05T01:52:24.129120","MEAN_MOTION":15.27572643,"ECCENTRICITY":0.0004302,"INCLINATION":43.0008,"RA_OF_ASC_NODE":81.9436,"ARG_OF_PERICENTER":297.5831,"MEAN_ANOMALY":62.4583,"EPHEMERIS_TYPE":0,"CLASSIFICATION_TYPE":"U","NORAD_CAT_ID":59406,"ELEMENT_SET_NO":999,"REV_AT_EPOCH":10852,"BSTAR":1.0424e-6,"MEAN_MOTION_DOT":-2.35e-6,"MEAN_MOTION_DDOT":0},{"OBJECT_NAME":"STARLINK-31387","OBJECT_ID":"2024-064K","EPOCH":"2026-03-05T01:15:35.790048","MEAN_MOTION":15.27597673,"ECCENTRICITY":0.0001786,"INCLINATION":42.9976,"RA_OF_ASC_NODE":82.6043,"ARG_OF_PERICENTER":202.8395,"MEAN_ANOMALY":157.2377,"EPHEMERIS_TYPE":0,"CLASSIFICATION_TYPE":"U","NORAD_CAT_ID":59407,"ELEMENT_SET_NO":999,"REV_AT_EPOCH":10851,"BSTAR":1.0701e-5,"MEAN_MOTION_DOT":3.2e-7,"MEAN_MOTION_DDOT":0},{"OBJECT_NAME":"STARLINK-31396","OBJECT_ID":"2024-064M","EPOCH":"2026-03-05T02:09:17.820576","MEAN_MOTION":15.27576718,"ECCENTRICITY":0.0001296,"INCLINATION":43.0022,"RA_OF_ASC_NODE":71.6377,"ARG_OF_PERICENTER":270.3816,"MEAN_ANOMALY":89.6887,"EPHEMERIS_TYPE":0,"CLASSIFICATION_TYPE":"U","NORAD_CAT_ID":59409,"ELEMENT_SET_NO":999,"REV_AT_EPOCH":10858,"BSTAR":5.0204e-5,"MEAN_MOTION_DOT":1.119e-5,"MEAN_MOTION_DDOT":0},{"OBJECT_NAME":"STARLINK-31412","OBJECT_ID":"2024-064N","EPOCH":"2026-03-05T02:18:18.318240","MEAN_MOTION":15.27581029,"ECCENTRICITY":0.0001154,"INCLINATION":43.003,"RA_OF_ASC_NODE":82.0749,"ARG_OF_PERICENTER":280.1559,"MEAN_ANOMALY":79.9162,"EPHEMERIS_TYPE":0,"CLASSIFICATION_TYPE":"U","NORAD_CAT_ID":59410,"ELEMENT_SET_NO":999,"REV_AT_EPOCH":10852,"BSTAR":1.3696e-5,"MEAN_MOTION_DOT":1.15e-6,"MEAN_MOTION_DDOT":0},{"OBJECT_NAME":"STARLINK-31483","OBJECT_ID":"2024-064P","EPOCH":"2026-03-05T02:34:58.378368","MEAN_MOTION":15.27567072,"ECCENTRICITY":0.0001308,"INCLINATION":43.005,"RA_OF_ASC_NODE":82.1655,"ARG_OF_PERICENTER":269.5955,"MEAN_ANOMALY":90.4747,"EPHEMERIS_TYPE":0,"CLASSIFICATION_TYPE":"U","NORAD_CAT_ID":59411,"ELEMENT_SET_NO":999,"REV_AT_EPOCH":10852,"BSTAR":-2.7129e-5,"MEAN_MOTION_DOT":-1.008e-5,"MEAN_MOTION_DDOT":0}]
