STARLINK-31626          
1 59392U 24062U   26063.98961931 -.00000630  00000+0 -91511-5 0  9997
2 59392  53.1593 277.3617 0001165  99.7092 260.4041 15.30194354108953
STARLINK-31443          
1 59393U 24062V   26063.83952197  .00002749  00000+0  10493-3 0  9995
2 59393  53.1577 265.5943 0001910  95.8381 264.2837 15.30199535109102
STARLINK-31607          
1 59394U 24062W   26063.99594825  .00001021  00000+0  46602-4 0  9997
2 59394  53.1597 277.4007 0001182  90.0884 270.0252 15.30194850108946
STARLINK-31608          
1 59397U 24062X   26063.89486638 -.00000050  00000+0  10441-4 0  9995
2 59397  53.1597 278.1927 0001110  93.2788 266.8340 15.30195947108889
STARLINK-31534          
1 59398U 24064A   26064.07035012  .00000187  00000+0  16293-4 0  9996
2 59398  43.0000  81.8923 0000569 302.7211  57.3586 15.27576245108467
STARLINK-31544          
1 59399U 24064B   26064.05636050  .00000436  00000+0  25367-4 0  9993
2 59399  43.0000  82.6404 0001567 269.5194  90.5478 15.27577937108514
STARLINK-31545          
1 59400U 24064C   26064.08191523  .00000563  00000+0  30002-4 0  9993
2 59400  43.0009  81.9760 0001505 290.8772  69.1918 15.27577664108523
STARLINK-31507          
1 59401U 24064D   26064.08833725 -.00000740  00000+0 -17358-4 0  9999
2 59401  42.9997  82.0149 0001307 189.1381 170.9447 15.27584567108468
STARLINK-31543          
1 59402U 24064E   26064.11403786  .00000729  00000+0  36014-4 0  9999
2 59402  43.0029  82.2146 0001421 278.1110  81.9581 15.27579584108522
STARLINK-31366          
1 59403U 24064F   26064.09990924  .00000239  00000+0  18199-4 0  9992
2 59403  43.0031  82.1058 0001111 271.2469  88.8256 15.27566519108523
STARLINK-31374          
1 59404U 24064G   26064.21006300  .00000154  00000+0  15095-4 0  9991
2 59404  42.9992  30.4072 0000432 155.3729 204.7144 15.27581070108878
STARLINK-31400          
1 59405U 24064H   26064.07420313  .00000434  00000+0  25278-4 0  9995
2 59405  43.0013  81.9181 0000935 273.3111  86.7633 15.27577662108526
STARLINK-31391          
1 59406U 24064J   26064.07805705 -.00000235  00000+0  10424-5 0  9996
2 59406  43.0008  81.9436 0004302 297.5831  62.4583 15.27572643108522
STARLINK-31387          
1 59407U 24064K   26064.05249757  .00000032  00000+0  10701-4 0  9995
2 59407  42.9976  82.6043 0001786 202.8395 157.2377 15.27597673108517
STARLINK-31396          
1 59409U 24064M   26064.08978959  .00001119  00000+0  50204-4 0  9992
2 59409  43.0022  71.6377 0001296 270.3816  89.6887 15.27576718108583
STARLINK-31412          
1 59410U 24064N   26064.09604535  .00000115  00000+0  13696-4 0  9990
2 59410  43.0030  82.0749 0001154 280.1559  79.9162 15.27581029108522
STARLINK-31483          
1 59411U 24064P   26064.10762012 -.00001008  00000+0 -27129-4 0  9998
2 59411  43.0050  82.1655 0001308 269.5955  90.4747 15.27567072108523
